{
  "type": "FeatureCollection",
  "features": [
    {
      "type": "Feature",
      "properties": {
        "norad_id": 31185,
        "name": "FENGYUN 1C DEB",
        "group": "fengyun-1c-debris",
        "lat": 42.332998714410095,
        "lon": -26.903172977924644,
        "alt_km": 868.8260624501572,
        "timestamp": "2025-12-10T16:57:11.917392+00:00",
        "meta_object_name": "FENGYUN 1C DEB",
        "meta_object_id": "1999-025BJP",
        "meta_epoch": "2025-12-03T06:44:56.905152",
        "meta_mean_motion": 14.03019915,
        "meta_eccentricity": 0.0041359,
        "meta_inclination": 98.8321,
        "meta_ra_of_asc_node": 334.0356,
        "meta_arg_of_pericenter": 132.5488,
        "meta_mean_anomaly": 227.9182,
        "meta_ephemeris_type": 0,
        "meta_classification_type": "U",
        "meta_norad_cat_id": 31185,
        "meta_element_set_no": 999,
        "meta_rev_at_epoch": 62204,
        "meta_bstar": 0.0004459,
        "meta_mean_motion_dot": 6.55e-06,
        "meta_mean_motion_ddot": 0,
        "tle_line1": "1 31185U 99025BJP 25337.28121418  .00000655  00000+0  44590-3 0  9990",
        "tle_line2": "2 31185  98.8321 334.0356 0041359 132.5488 227.9182 14.03019915622046"
      },
      "geometry": {
        "type": "Point",
        "coordinates": [
          -26.903172977924644,
          42.332998714410095
        ]
      }
    },
    {
      "type": "Feature",
      "properties": {
        "norad_id": 31186,
        "name": "FENGYUN 1C DEB",
        "group": "fengyun-1c-debris",
        "lat": 24.675496285224064,
        "lon": 84.27454587468667,
        "alt_km": 847.5711650011945,
        "timestamp": "2025-12-10T16:57:11.917402+00:00",
        "meta_object_name": "FENGYUN 1C DEB",
        "meta_object_id": "1999-025BJQ",
        "meta_epoch": "2025-12-07T00:08:36.055104",
        "meta_mean_motion": 14.12891869,
        "meta_eccentricity": 0.00265947,
        "meta_inclination": 99.1777,
        "meta_ra_of_asc_node": 256.2241,
        "meta_arg_of_pericenter": 78.4554,
        "meta_mean_anomaly": 344.6063,
        "meta_ephemeris_type": 0,
        "meta_classification_type": "U",
        "meta_norad_cat_id": 31186,
        "meta_element_set_no": 999,
        "meta_rev_at_epoch": 96024,
        "meta_bstar": 0.00076036897,
        "meta_mean_motion_dot": 1.373e-05,
        "meta_mean_motion_ddot": 0,
        "tle_line1": "1 31186U 99025BJQ 25341.00597286  .00001373  00000+0  76037-3 0  9995",
        "tle_line2": "2 31186  99.1777 256.2241 0026594  78.4554 344.6063 14.12891869960248"
      },
      "geometry": {
        "type": "Point",
        "coordinates": [
          84.27454587468667,
          24.675496285224064
        ]
      }
    },
    {
      "type": "Feature",
      "properties": {
        "norad_id": 31187,
        "name": "FENGYUN 1C DEB",
        "group": "fengyun-1c-debris",
        "lat": 64.71488507086072,
        "lon": -172.24073995973328,
        "alt_km": 838.7031177416329,
        "timestamp": "2025-12-10T16:57:11.917415+00:00",
        "meta_object_name": "FENGYUN 1C DEB",
        "meta_object_id": "1999-025BJR",
        "meta_epoch": "2025-12-10T08:24:34.610976",
        "meta_mean_motion": 14.59210147,
        "meta_eccentricity": 0.0220658,
        "meta_inclination": 99.2415,
        "meta_ra_of_asc_node": 207.5247,
        "meta_arg_of_pericenter": 231.0303,
        "meta_mean_anomaly": 127.1053,
        "meta_ephemeris_type": 0,
        "meta_classification_type": "U",
        "meta_norad_cat_id": 31187,
        "meta_element_set_no": 999,
        "meta_rev_at_epoch": 69065,
        "meta_bstar": 0.0052392,
        "meta_mean_motion_dot": 0.00034832,
        "meta_mean_motion_ddot": 0,
        "tle_line1": "1 31187U 99025BJR 25344.35040059  .00034832  00000+0  52392-2 0  9991",
        "tle_line2": "2 31187  99.2415 207.5247 0220658 231.0303 127.1053 14.59210147690653"
      },
      "geometry": {
        "type": "Point",
        "coordinates": [
          -172.24073995973328,
          64.71488507086072
        ]
      }
    },
    {
      "type": "Feature",
      "properties": {
        "norad_id": 31188,
        "name": "FENGYUN 1C DEB",
        "group": "fengyun-1c-debris",
        "lat": 58.782866434134625,
        "lon": -112.7776941148617,
        "alt_km": 837.2510295484471,
        "timestamp": "2025-12-10T16:57:11.917427+00:00",
        "meta_object_name": "FENGYUN 1C DEB",
        "meta_object_id": "1999-025BJS",
        "meta_epoch": "2025-12-09T20:27:36.322272",
        "meta_mean_motion": 14.23793839,
        "meta_eccentricity": 0.00598746,
        "meta_inclination": 98.7483,
        "meta_ra_of_asc_node": 51.6537,
        "meta_arg_of_pericenter": 257.7465,
        "meta_mean_anomaly": 168.5076,
        "meta_ephemeris_type": 0,
        "meta_classification_type": "U",
        "meta_norad_cat_id": 31188,
        "meta_element_set_no": 999,
        "meta_rev_at_epoch": 96295,
        "meta_bstar": 0.0024661444,
        "meta_mean_motion_dot": 5.704e-05,
        "meta_mean_motion_ddot": 0,
        "tle_line1": "1 31188U 99025BJS 25343.85250373  .00005704  00000+0  24661-2 0  9992",
        "tle_line2": "2 31188  98.7483  51.6537 0059874 257.7465 168.5076 14.23793839962951"
      },
      "geometry": {
        "type": "Point",
        "coordinates": [
          -112.7776941148617,
          58.782866434134625
        ]
      }
    },
    {
      "type": "Feature",
      "properties": {
        "norad_id": 31190,
        "name": "FENGYUN 1C DEB",
        "group": "fengyun-1c-debris",
        "lat": 65.44169157380027,
        "lon": -22.36632228620172,
        "alt_km": 921.4795995445284,
        "timestamp": "2025-12-10T16:57:11.917437+00:00",
        "meta_object_name": "FENGYUN 1C DEB",
        "meta_object_id": "1999-025BJU",
        "meta_epoch": "2025-12-08T18:26:23.655840",
        "meta_mean_motion": 14.03585649,
        "meta_eccentricity": 0.00674931,
        "meta_inclination": 98.8187,
        "meta_ra_of_asc_node": 355.6145,
        "meta_arg_of_pericenter": 270.6253,
        "meta_mean_anomaly": 88.7181,
        "meta_ephemeris_type": 0,
        "meta_classification_type": "U",
        "meta_norad_cat_id": 31190,
        "meta_element_set_no": 999,
        "meta_rev_at_epoch": 95491,
        "meta_bstar": 0.0013180763,
        "meta_mean_motion_dot": 2.067e-05,
        "meta_mean_motion_ddot": 0,
        "tle_line1": "1 31190U 99025BJU 25342.76832935  .00002067  00000+0  13181-2 0  9998",
        "tle_line2": "2 31190  98.8187 355.6145 0067493 270.6253  88.7181 14.03585649954916"
      },
      "geometry": {
        "type": "Point",
        "coordinates": [
          -22.36632228620172,
          65.44169157380027
        ]
      }
    },
    {
      "type": "Feature",
      "properties": {
        "norad_id": 31191,
        "name": "FENGYUN 1C DEB",
        "group": "fengyun-1c-debris",
        "lat": 26.277415504526367,
        "lon": -118.83580938933855,
        "alt_km": 820.2616239920098,
        "timestamp": "2025-12-10T16:57:11.917447+00:00",
        "meta_object_name": "FENGYUN 1C DEB",
        "meta_object_id": "1999-025BJV",
        "meta_epoch": "2025-12-09T05:49:35.501664",
        "meta_mean_motion": 14.40779508,
        "meta_eccentricity": 0.0092096,
        "meta_inclination": 98.7826,
        "meta_ra_of_asc_node": 244.0394,
        "meta_arg_of_pericenter": 204.9676,
        "meta_mean_anomaly": 154.7043,
        "meta_ephemeris_type": 0,
        "meta_classification_type": "U",
        "meta_norad_cat_id": 31191,
        "meta_element_set_no": 999,
        "meta_rev_at_epoch": 97962,
        "meta_bstar": 0.0006176,
        "meta_mean_motion_dot": 2.029e-05,
        "meta_mean_motion_ddot": 0,
        "tle_line1": "1 31191U 99025BJV 25343.24277201  .00002029  00000+0  61760-3 0  9997",
        "tle_line2": "2 31191  98.7826 244.0394 0092096 204.9676 154.7043 14.40779508979625"
      },
      "geometry": {
        "type": "Point",
        "coordinates": [
          -118.83580938933855,
          26.277415504526367
        ]
      }
    },
    {
      "type": "Feature",
      "properties": {
        "norad_id": 31192,
        "name": "FENGYUN 1C DEB",
        "group": "fengyun-1c-debris",
        "lat": 70.10215768609676,
        "lon": -56.11258711223925,
        "alt_km": 665.4067307428741,
        "timestamp": "2025-12-10T16:57:11.917457+00:00",
        "meta_object_name": "FENGYUN 1C DEB",
        "meta_object_id": "1999-025BJW",
        "meta_epoch": "2025-12-10T09:51:38.833632",
        "meta_mean_motion": 14.20953565,
        "meta_eccentricity": 0.0259631,
        "meta_inclination": 98.5534,
        "meta_ra_of_asc_node": 328.1707,
        "meta_arg_of_pericenter": 110.4633,
        "meta_mean_anomaly": 252.4622,
        "meta_ephemeris_type": 0,
        "meta_classification_type": "U",
        "meta_norad_cat_id": 31192,
        "meta_element_set_no": 999,
        "meta_rev_at_epoch": 96710,
        "meta_bstar": 0.00038417,
        "meta_mean_motion_dot": 1.125e-05,
        "meta_mean_motion_ddot": 0,
        "tle_line1": "1 31192U 99025BJW 25344.41086613  .00001125  00000+0  38417-3 0  9992",
        "tle_line2": "2 31192  98.5534 328.1707 0259631 110.4633 252.4622 14.20953565967100"
      },
      "geometry": {
        "type": "Point",
        "coordinates": [
          -56.11258711223925,
          70.10215768609676
        ]
      }
    }
  ]
}